[{
        "name": "Jamie Brooks",
        "zipCode": "78633",
        "Address": "10220 Ardrey Kell Road",
        "description": "Certified Tutor"

    },
    {
        "name": "Tanya Branham",
        "zipCode": "78633",
        "Address": "1430 Alleghany Street",
        "description": "Certified Tutor"

    },
    {
        "name": "Vincent Golden",
        "zipCode": "78633",
        "Address": "1810 Matthews-Mint Hill Road",
        "description": "Certified Tutor"

    },
    {
        "name": "Alicisa Johnson",
        "zipCode": "78633",
        "Address": "8120 Grier Road",
        "description": "Certified Tutor"

    },
    {
        "name": "Diann N. Weston",
        "zipCode": "78633",
        "Address": "1411 Hawthorne Ln",
        "description": "Certified Tutor"

    },
    {
        "name": "Richard B. Parker",
        "zipCode": "78633",
        "Address": "6800 Monroe Road",
        "description": "Certified Tutor"

    },
    {
        "name": "Sharon Allen Bracey",
        "zipCode": "78633",
        "Address": "1100 Eastway Drive",
        "description": "Certified Tutor"

    },
    {
        "name": "Jane Sutton ",
        "zipCode": "78633",
        "Address": "2001 Alleghany Street",
        "description": "Certified Tutor"

    },
    {
        "name": "Tracey M. Pickard",
        "zipCode": "78633",
        "Address": "11530 Beatties Ford Road",
        "description": "Certified Tutor"

    },
    {
        "name": "David L. Legrand",
        "zipCode": "78633",
        "Address": "1967 Patriot Drive",
        "description": "Certified Tutor"

    },
    {
        "name": "Jennifer Dean",
        "zipCode": "78633",
        "Address": "3825 Johnston Oehler Road",
        "description": "Certified Tutor"

    },
    {
        "name": "Robert Folk",
        "zipCode": "78633",
        "Address": "2400 Colony Road",
        "description": "Certified Tutor"

    }
]